CCSDS_OMM_VERS = 2.0
CREATION_DATE  = 
ORIGINATOR     = 

OBJECT_NAME    = SL-14 R/B
OBJECT_ID      = 1988-001B
CENTER_NAME    = EARTH
REF_FRAME      = TEME
TIME_SYSTEM    = UTC
MEAN_ELEMENT_THEORY = SGP/SGP4

EPOCH          = 2025-11-30T20:31:42.601152
MEAN_MOTION    = 14.85402854
ECCENTRICITY   = .0017406
INCLINATION    = 82.5121
RA_OF_ASC_NODE = 288.3259
ARG_OF_PERICENTER = 200.4996
MEAN_ANOMALY   = 159.5524

EPHEMERIS_TYPE = 0
CLASSIFICATION_TYPE = U
NORAD_CAT_ID   = 18749
ELEMENT_SET_NO = 999
REV_AT_EPOCH   = 2735
BSTAR          = .64124E-4
MEAN_MOTION_DOT = .577E-5
MEAN_MOTION_DDOT = 0

CCSDS_OMM_VERS = 2.0
CREATION_DATE  = 
ORIGINATOR     = 

OBJECT_NAME    = COSMOS 1933
OBJECT_ID      = 1988-020A
CENTER_NAME    = EARTH
REF_FRAME      = TEME
TIME_SYSTEM    = UTC
MEAN_ELEMENT_THEORY = SGP/SGP4

EPOCH          = 2025-11-30T13:12:21.275136
MEAN_MOTION    = 15.16954506
ECCENTRICITY   = .0004641
INCLINATION    = 82.5134
RA_OF_ASC_NODE = 348.9230
ARG_OF_PERICENTER = 161.6611
MEAN_ANOMALY   = 198.4790

EPHEMERIS_TYPE = 0
CLASSIFICATION_TYPE = U
NORAD_CAT_ID   = 18958
ELEMENT_SET_NO = 999
REV_AT_EPOCH   = 3519
BSTAR          = .19638E-3
MEAN_MOTION_DOT = .3904E-4
MEAN_MOTION_DDOT = 0

CCSDS_OMM_VERS = 2.0
CREATION_DATE  = 
ORIGINATOR     = 

OBJECT_NAME    = SL-3 R/B
OBJECT_ID      = 1988-032B
CENTER_NAME    = EARTH
REF_FRAME      = TEME
TIME_SYSTEM    = UTC
MEAN_ELEMENT_THEORY = SGP/SGP4

EPOCH          = 2025-11-30T20:52:06.157344
MEAN_MOTION    = 15.18553534
ECCENTRICITY   = .0025471
INCLINATION    = 97.5067
RA_OF_ASC_NODE = 313.6749
ARG_OF_PERICENTER = 215.1622
MEAN_ANOMALY   = 144.7932

EPHEMERIS_TYPE = 0
CLASSIFICATION_TYPE = U
NORAD_CAT_ID   = 19046
ELEMENT_SET_NO = 999
REV_AT_EPOCH   = 3710
BSTAR          = .26359E-3
MEAN_MOTION_DOT = .5421E-4
MEAN_MOTION_DDOT = 0

CCSDS_OMM_VERS = 2.0
CREATION_DATE  = 
ORIGINATOR     = 

OBJECT_NAME    = SL-16 R/B
OBJECT_ID      = 1988-039B
CENTER_NAME    = EARTH
REF_FRAME      = TEME
TIME_SYSTEM    = UTC
MEAN_ELEMENT_THEORY = SGP/SGP4

EPOCH          = 2025-11-30T20:07:35.078016
MEAN_MOTION    = 14.19592995
ECCENTRICITY   = .0020153
INCLINATION    = 71.0146
RA_OF_ASC_NODE = 277.5613
ARG_OF_PERICENTER = 136.2836
MEAN_ANOMALY   = 223.9889

EPHEMERIS_TYPE = 0
CLASSIFICATION_TYPE = U
NORAD_CAT_ID   = 19120
ELEMENT_SET_NO = 999
REV_AT_EPOCH   = 94435
BSTAR          = -.16664E-4
MEAN_MOTION_DOT = -.83E-6
MEAN_MOTION_DDOT = 0

CCSDS_OMM_VERS = 2.0
CREATION_DATE  = 
ORIGINATOR     = 

OBJECT_NAME    = COSMOS 1953
OBJECT_ID      = 1988-050A
CENTER_NAME    = EARTH
REF_FRAME      = TEME
TIME_SYSTEM    = UTC
MEAN_ELEMENT_THEORY = SGP/SGP4

EPOCH          = 2025-11-30T18:38:17.724192
MEAN_MOTION    = 15.26717962
ECCENTRICITY   = .0013696
INCLINATION    = 82.5088
RA_OF_ASC_NODE = 257.5823
ARG_OF_PERICENTER = 107.7193
MEAN_ANOMALY   = 252.5542

EPHEMERIS_TYPE = 0
CLASSIFICATION_TYPE = U
NORAD_CAT_ID   = 19210
ELEMENT_SET_NO = 999
REV_AT_EPOCH   = 2268
BSTAR          = .24463E-3
MEAN_MOTION_DOT = .6475E-4
MEAN_MOTION_DDOT = 0

CCSDS_OMM_VERS = 2.0
CREATION_DATE  = 
ORIGINATOR     = 

OBJECT_NAME    = SL-8 R/B
OBJECT_ID      = 1988-053B
CENTER_NAME    = EARTH
REF_FRAME      = TEME
TIME_SYSTEM    = UTC
MEAN_ELEMENT_THEORY = SGP/SGP4

EPOCH          = 2025-11-30T20:26:14.289792
MEAN_MOTION    = 14.38847119
ECCENTRICITY   = .0019308
INCLINATION    = 74.0472
RA_OF_ASC_NODE = 294.6298
ARG_OF_PERICENTER = 143.0062
MEAN_ANOMALY   = 236.8875

EPHEMERIS_TYPE = 0
CLASSIFICATION_TYPE = U
NORAD_CAT_ID   = 19257
ELEMENT_SET_NO = 999
REV_AT_EPOCH   = 96238
BSTAR          = .90334E-4
MEAN_MOTION_DOT = .252E-5
MEAN_MOTION_DDOT = 0

CCSDS_OMM_VERS = 2.0
CREATION_DATE  = 
ORIGINATOR     = 

OBJECT_NAME    = COSMOS 1975
OBJECT_ID      = 1988-093A
CENTER_NAME    = EARTH
REF_FRAME      = TEME
TIME_SYSTEM    = UTC
MEAN_ELEMENT_THEORY = SGP/SGP4

EPOCH          = 2025-11-30T15:39:42.280416
MEAN_MOTION    = 15.26192529
ECCENTRICITY   = .0011962
INCLINATION    = 82.5213
RA_OF_ASC_NODE = 216.9251
ARG_OF_PERICENTER = 150.6841
MEAN_ANOMALY   = 209.5071

EPHEMERIS_TYPE = 0
CLASSIFICATION_TYPE = U
NORAD_CAT_ID   = 19573
ELEMENT_SET_NO = 999
REV_AT_EPOCH   = 429
BSTAR          = .32187E-3
MEAN_MOTION_DOT = .8372E-4
MEAN_MOTION_DDOT = 0

CCSDS_OMM_VERS = 2.0
CREATION_DATE  = 
ORIGINATOR     = 

OBJECT_NAME    = SL-14 R/B
OBJECT_ID      = 1988-093B
CENTER_NAME    = EARTH
REF_FRAME      = TEME
TIME_SYSTEM    = UTC
MEAN_ELEMENT_THEORY = SGP/SGP4

EPOCH          = 2025-11-30T20:42:35.416224
MEAN_MOTION    = 14.85528074
ECCENTRICITY   = .002094
INCLINATION    = 82.5295
RA_OF_ASC_NODE = 134.8129
ARG_OF_PERICENTER = 9.4007
MEAN_ANOMALY   = 105.3559

EPHEMERIS_TYPE = 0
CLASSIFICATION_TYPE = U
NORAD_CAT_ID   = 19574
ELEMENT_SET_NO = 999
REV_AT_EPOCH   = 98636
BSTAR          = .60908E-4
MEAN_MOTION_DOT = .552E-5
MEAN_MOTION_DDOT = 0

CCSDS_OMM_VERS = 2.0
CREATION_DATE  = 
ORIGINATOR     = 

OBJECT_NAME    = SL-16 R/B
OBJECT_ID      = 1988-102B
CENTER_NAME    = EARTH
REF_FRAME      = TEME
TIME_SYSTEM    = UTC
MEAN_ELEMENT_THEORY = SGP/SGP4

EPOCH          = 2025-11-30T19:17:05.934624
MEAN_MOTION    = 14.16137289
ECCENTRICITY   = .0013575
INCLINATION    = 71.0006
RA_OF_ASC_NODE = 359.5589
ARG_OF_PERICENTER = 171.4137
MEAN_ANOMALY   = 188.7221

EPHEMERIS_TYPE = 0
CLASSIFICATION_TYPE = U
NORAD_CAT_ID   = 19650
ELEMENT_SET_NO = 999
REV_AT_EPOCH   = 91289
BSTAR          = .14237E-4
MEAN_MOTION_DOT = -.2E-6
MEAN_MOTION_DDOT = 0

CCSDS_OMM_VERS = 2.0
CREATION_DATE  = 
ORIGINATOR     = 

OBJECT_NAME    = INTERCOSMOS 24
OBJECT_ID      = 1989-080A
CENTER_NAME    = EARTH
REF_FRAME      = TEME
TIME_SYSTEM    = UTC
MEAN_ELEMENT_THEORY = SGP/SGP4

EPOCH          = 2025-11-30T12:12:46.603872
MEAN_MOTION    = 12.59405000
ECCENTRICITY   = .11886747
INCLINATION    = 82.6044
RA_OF_ASC_NODE = 168.9054
ARG_OF_PERICENTER = 162.8852
MEAN_ANOMALY   = 201.6234

EPHEMERIS_TYPE = 0
CLASSIFICATION_TYPE = U
NORAD_CAT_ID   = 20261
ELEMENT_SET_NO = 999
REV_AT_EPOCH   = 65431
BSTAR          = .23212643E-3
MEAN_MOTION_DOT = .808E-5
MEAN_MOTION_DDOT = 0

CCSDS_OMM_VERS = 2.0
CREATION_DATE  = 
ORIGINATOR     = 

OBJECT_NAME    = SL-14 R/B
OBJECT_ID      = 1989-080C
CENTER_NAME    = EARTH
REF_FRAME      = TEME
TIME_SYSTEM    = UTC
MEAN_ELEMENT_THEORY = SGP/SGP4

EPOCH          = 2025-11-30T17:50:19.270176
MEAN_MOTION    = 12.50397861
ECCENTRICITY   = .1230848
INCLINATION    = 82.5939
RA_OF_ASC_NODE = 236.7196
ARG_OF_PERICENTER = 50.9995
MEAN_ANOMALY   = 319.4369

EPHEMERIS_TYPE = 0
CLASSIFICATION_TYPE = U
NORAD_CAT_ID   = 20262
ELEMENT_SET_NO = 999
REV_AT_EPOCH   = 64778
BSTAR          = .13028E-3
MEAN_MOTION_DOT = .458E-5
MEAN_MOTION_DDOT = 0

CCSDS_OMM_VERS = 2.0
CREATION_DATE  = 
ORIGINATOR     = 

OBJECT_NAME    = DELTA 1 R/B
OBJECT_ID      = 1989-089B
CENTER_NAME    = EARTH
REF_FRAME      = TEME
TIME_SYSTEM    = UTC
MEAN_ELEMENT_THEORY = SGP/SGP4

EPOCH          = 2025-11-30T20:15:35.151840
MEAN_MOTION    = 14.50556507
ECCENTRICITY   = .0070664
INCLINATION    = 97.0760
RA_OF_ASC_NODE = 192.9664
ARG_OF_PERICENTER = 75.2039
MEAN_ANOMALY   = 285.6975

EPHEMERIS_TYPE = 0
CLASSIFICATION_TYPE = U
NORAD_CAT_ID   = 20323
ELEMENT_SET_NO = 999
REV_AT_EPOCH   = 88140
BSTAR          = .10355E-3
MEAN_MOTION_DOT = .384E-5
MEAN_MOTION_DDOT = 0

