SL-14 R/B               
1 18749U 88001B   25334.85535418  .00000577  00000+0  64124-4 0  9991
2 18749  82.5121 288.3259 0017406 200.4996 159.5524 14.85402854 27354
COSMOS 1933             
1 18958U 88020A   25334.55024624  .00003904  00000+0  19638-3 0  9999
2 18958  82.5134 348.9230 0004641 161.6611 198.4790 15.16954506 35190
SL-3 R/B                
1 19046U 88032B   25334.86951571  .00005421  00000+0  26359-3 0  9999
2 19046  97.5067 313.6749 0025471 215.1622 144.7932 15.18553534 37108
SL-16 R/B               
1 19120U 88039B   25334.83860044 -.00000083  00000+0 -16664-4 0  9990
2 19120  71.0146 277.5613 0020153 136.2836 223.9889 14.19592995944355
COSMOS 1953             
1 19210U 88050A   25334.77659403  .00006475  00000+0  24463-3 0  9995
2 19210  82.5088 257.5823 0013696 107.7193 252.5542 15.26717962 22680
SL-8 R/B                
1 19257U 88053B   25334.85155428  .00000252  00000+0  90334-4 0  9994
2 19257  74.0472 294.6298 0019308 143.0062 236.8875 14.38847119962380
COSMOS 1975             
1 19573U 88093A   25334.65257269  .00008372  00000+0  32187-3 0  9995
2 19573  82.5213 216.9251 0011962 150.6841 209.5071 15.26192529  4299
SL-14 R/B               
1 19574U 88093B   25334.86290991  .00000552  00000+0  60908-4 0  9993
2 19574  82.5295 134.8129 0020940   9.4007 105.3559 14.85528074986366
SL-16 R/B               
1 19650U 88102B   25334.80354091 -.00000020  00000+0  14237-4 0  9990
2 19650  71.0006 359.5589 0013575 171.4137 188.7221 14.16137289912896
INTERCOSMOS 24          
1 20261U 89080A   25334.50887273  .00000808  00000+0  23213-3 0  9992
2 20261  82.6044 168.9054 1188674 162.8852 201.6234 12.59405000654310
SL-14 R/B               
1 20262U 89080C   25334.74327859  .00000458  00000+0  13028-3 0  9992
2 20262  82.5939 236.7196 1230848  50.9995 319.4369 12.50397861647786
DELTA 1 R/B             
1 20323U 89089B   25334.84415685  .00000384  00000+0  10355-3 0  9993
2 20323  97.0760 192.9664 0070664  75.2039 285.6975 14.50556507881408
